NOAA 17                 
1 27453U 02032A   26087.89860401  .00000245  00000+0  12124-3 0  9990
2 27453  98.8574  52.7356 0010836 220.7073 139.3297 14.26200051235545
NOAA 18                 
1 28654U 05018A   26087.79265558  .00000044  00000+0  46195-4 0  9995
2 28654  98.8131 168.6301 0014571  23.9513 336.2335 14.13714584 74951
NOAA 19                 
1 33591U 09005A   26087.84802877  .00000034  00000+0  42169-4 0  9994
2 33591  98.9572 158.6480 0012734 256.1675 103.8080 14.13460435883138
SUOMI NPP               
1 37849U 11061A   26087.84493700  .00000085  00000+0  61326-4 0  9992
2 37849  98.7893  29.2975 0001668 159.3400 200.7844 14.19498523747047
NOAA 20 (JPSS-1)        
1 43013U 17073A   26087.78887664  .00000083  00000+0  60112-4 0  9990
2 43013  98.7713  27.9887 0001884 111.8812 248.2565 14.19540945433062
NOAA 21 (JPSS-2)        
1 54234U 22150A   26087.82336968  .00000063  00000+0  50572-4 0  9997
2 54234  98.7575  27.8725 0002758  73.1993 286.9486 14.19557026175147
